KUIPER-00074            
1 64821U 25151F   25359.96069082  .00004579  00000+0  62879-3 0  9998
2 64821  51.9003 256.6211 0013845  30.4184 329.7579 14.79932155 24526
KUIPER-00075            
1 64822U 25151G   25359.88432431  .00036963  00000+0  91663-3 0  9997
2 64822  51.8735 220.3416 0003327  45.0752 315.0505 15.40015386 25020
KUIPER-00076            
1 64823U 25151H   25360.02547489  .00003066  00000+0  43101-3 0  9998
2 64823  51.9023 258.8261 0005668  32.4259 327.7051 14.79938543 24506
KUIPER-00077            
1 64824U 25151J   25359.00716199  .00005289  00000+0  72138-3 0  9992
2 64824  51.9016 268.3376 0006248 349.7457  10.3377 14.79979434 24286
KUIPER-00078            
1 64825U 25151K   25360.12411030  .00005050  00000+0  69127-3 0  9994
2 64825  51.8999 260.8911 0008778  47.9400 312.2308 14.79905636 24486
KUIPER-00079            
1 64826U 25151L   25360.15249758  .00004946  00000+0  67644-3 0  9999
2 64826  51.8986 265.7513 0011950   0.2444 359.8523 14.79960768 25610
KUIPER-00080            
1 64827U 25151M   25360.11869282 -.00002331  00000+0 -27687-3 0  9997
2 64827  51.8996 265.9050 0006187  22.9921 337.1317 14.79892605 24418
KUIPER-00082            
1 64828U 25151N   25360.09833372  .00003762  00000+0  52204-3 0  9996
2 64828  51.9014 253.5127 0005446  48.9866 311.1567 14.79948057 24582
KUIPER-00083            
1 64829U 25151P   25360.02269969  .00005033  00000+0  68863-3 0  9996
2 64829  51.9005 261.3394 0011347   0.7896 359.3082 14.79917946 25650
KUIPER-00084            
1 64830U 25151Q   25358.93053796 -.00030631  00000+0 -40027-2 0  9999
2 64830  51.9009 276.1449 0012987 330.7138  29.3095 14.79912389 24166
KUIPER-00085            
1 64831U 25151R   25360.13215031 -.00001494  00000+0 -16653-3 0  9991
2 64831  51.9041 253.3794 0007821  21.6597 338.4694 14.79966414 24582
KUIPER-00086            
1 64832U 25151S   25360.05384517  .00005058  00000+0  69148-3 0  9994
2 64832  51.9021 263.7093 0010935 358.9536   1.1402 14.79944826 24435
KUIPER-00087            
1 64833U 25151T   25358.99222769  .00009001  00000+0  12176-2 0  9995
2 64833  51.8958 250.8948 0002469 107.7340 252.3892 14.79600713 24512
KUIPER-00089            
1 64834U 25151U   25359.86470714  .00004990  00000+0  68281-3 0  9999
2 64834  51.9018 252.0423 0002410  89.9242 270.1996 14.79954050 24587
KUIPER-00090            
1 64835U 25151V   25359.88940601  .00003469  00000+0  52208-3 0  9991
2 64835  51.8978 243.9536 0004591 103.1960 256.9514 14.76641130 24693
KUIPER-00091            
1 64836U 25151W   25360.07004726  .00003641  00000+0  50596-3 0  9994
2 64836  51.8995 248.6395 0008648  54.2500 305.9266 14.79967944 24642
KUIPER-00092            
1 64837U 25151X   25360.12943460  .00004153  00000+0  57305-3 0  9992
2 64837  51.8993 255.8736 0003375  32.8328 327.2844 14.79965378 25764
KUIPER-00093            
1 64838U 25151Y   25360.33334491 -.00051062  00000+0 -66889-2 0  9993
2 64838  51.8986 257.4608 0003976  48.9090 331.8318 14.80119571  4047
KUIPER-00094            
1 64839U 25151Z   25360.07201660  .00009190  00000+0  65945-3 0  9992
2 64839  51.8882 241.0100 0004470  38.8237 321.3057 15.04960189 24750
KUIPER-00081            
1 65132U 25171A   25359.07528450  .00005296  00000+0  55227-3 0  9993
2 65132  51.8943 118.4131 0002730 290.6995  69.3680 14.91148571 21983
KUIPER-00088            
1 65133U 25171B   25359.66415038  .00003880  00000+0  57863-3 0  9991
2 65133  51.8984 133.3451 0007718 231.9392 128.0874 14.76758358 21824
KUIPER-00095            
1 65134U 25171C   25359.59964709  .00007964  00000+0  72675-3 0  9993
2 65134  51.8917 117.1123 0004672 235.4264 124.6264 14.95861888 22044
KUIPER-00096            
1 65135U 25171D   25359.79963429  .00001203  00000+0  18686-3 0  9996
2 65135  51.9044 124.8259 0010013 264.4646  95.5175 14.79966288 21952
KUIPER-00097            
1 65136U 25171E   25359.66192914  .00005348  00000+0  73025-3 0  9998
2 65136  51.9001 128.0514 0009518 264.7943  95.1933 14.79898329 21887
KUIPER-00098            
1 65137U 25171F   25359.65920247 -.00005268  00000+0 -66139-3 0  9997
2 65137  51.9003 130.4497 0006736 243.4398 116.5874 14.79979544 21201
KUIPER-00099            
1 65138U 25171G   25359.63633336  .00008656  00000+0  11633-2 0  9996
2 65138  51.9026 120.5188 0000769 122.5799 237.5238 14.79922190 21995
KUIPER-00100            
1 65139U 25171H   25360.33334491 -.00007322  00000+0 -91079-3 0  9990
2 65139  51.9004 114.8196 0001504 174.7395 161.8690 14.80908365  5843
KUIPER-00102            
1 65140U 25171J   25358.79125846  .00076406  00000+0  10228-1 0  9993
2 65140  51.8978 124.2801 0001527 103.0404 257.0729 14.78718901 21866
KUIPER-00103            
1 65141U 25171K   25359.61746767  .00004173  00000+0  57605-3 0  9991
2 65141  51.8978 138.1253 0005539 239.1663 120.8755 14.79936244 21743
KUIPER-00104            
1 65142U 25171L   25359.35282573  .00003793  00000+0  56822-3 0  9990
2 65142  51.8995 125.9582 0003288 293.2322  66.8293 14.76624273 21899
KUIPER-00105            
1 65143U 25171M   25359.79156852  .00005056  00000+0  69099-3 0  9993
2 65143  51.8990 132.4272 0012190 217.4307 142.5807 14.79950272 21849
KUIPER-00106            
1 65144U 25171N   25359.74181504  .00007459  00000+0  66906-3 0  9994
2 65144  51.8932 130.8904 0008997 212.2771 147.7649 14.96612672 21869
KUIPER-00107            
1 65145U 25171P   25360.33334491 -.00005495  00000+0 -62681-3 0  9993
2 65145  51.8986 112.6148 0007447 281.7366 272.5366 14.83978444  5501
KUIPER-00108            
1 65146U 25171Q   25359.62775488  .00004246  00000+0  58439-3 0  9996
2 65146  51.9004 128.0885 0008098 225.7120 134.3179 14.80018263 21890
KUIPER-00109            
1 65147U 25171R   25359.53229916  .00008663  00000+0  11633-2 0  9998
2 65147  51.9015 123.4585 0011828 239.9292 120.0498 14.79920163 21942
KUIPER-00110            
1 65148U 25171S   25359.95769878 -.00072399  00000+0 -95459-2 0  9998
2 65148  51.8994 134.1805 0002226 246.7871 113.2857 14.80037664 21820
KUIPER-00111            
1 65149U 25171T   25359.78345417 -.00001488  00000+0 -16578-3 0  9996
2 65149  51.8968 139.8794 0008333 230.3699 129.6528 14.79956440 21739
KUIPER-00112            
1 65150U 25171U   25359.76855795  .00005425  00000+0  74004-3 0  9992
2 65150  51.9008 122.4693 0008769 277.0410  82.9555 14.79923593 21975
KUIPER-00114            
1 65151U 25171V   25359.84817809  .00001395  00000+0  21195-3 0  9991
2 65151  51.8987 142.1301 0008599 220.6061 139.4261 14.79971100 21703
KUIPER-00115            
1 65152U 25171W   25359.65383181  .00002989  00000+0  42069-3 0  9995
2 65152  51.9000 135.4732 0009433 237.7696 122.2352 14.79955005 21780
KUIPER-00116            
1 65153U 25171X   25359.68224680  .00003797  00000+0  52674-3 0  9998
2 65153  51.8987 140.3902 0009744 203.0043 157.0484 14.79934117 21711
KUIPER-00118            
1 65154U 25171Y   25359.67959671  .00004325  00000+0  59588-3 0  9992
2 65154  51.8983 142.8578 0001241 181.2512 178.8448 14.79939823 21682
KUIPER-00119            
1 65155U 25171Z   25359.35536262  .00004635  00000+0  63625-3 0  9996
2 65155  51.9008 131.8749 0008023 232.4560 127.5674 14.79949742 21804
KUIPER-00120            
1 65762U 25217A   25360.33334491 -.00009737  00000+0 -12980-2 0  9998
2 65762  51.8996  16.2394 0003459  57.4518 206.3338 14.78354116  5260
KUIPER-00132            
1 65763U 25217B   25360.28678436  .00049914  00000+0  13257-2 0  9990
2 65763  51.8635 359.2056 0008151  64.3442 295.8386 15.37748935 14126
KUIPER-00133            
1 65764U 25217C   25360.03116008  .00003910  00000+0  54133-3 0  9991
2 65764  51.9050  18.8163 0011734  74.0353 286.1902 14.79943585 13833
KUIPER-00139            
1 65765U 25217D   25360.32189350  .00009851  00000+0  76548-3 0  9998
2 65765  51.8868   9.7687 0008823  66.7170 293.4730 15.01842982 13981
KUIPER-00142            
1 65766U 25217E   25360.33334491 -.01105133  00000+0 -83801-1 0  9999
2 65766  51.8966   1.5796 0003230  94.1521  31.3722 15.04832037  4426
KUIPER-00145            
1 65767U 25217F   25360.33334491 -.01521580  00000+0 -13754+0 0  9996
2 65767  51.8951   3.4212 0007406  56.4074 124.5189 14.98155200  5355
KUIPER-00147            
1 65768U 25217G   25360.25723749 -.00360495  00000+0 -32961-1 0  9994
2 65768  51.8977   6.1863 0011022  68.1192 292.0949 14.96505570 14022
KUIPER-00148            
1 65769U 25217H   25360.31542645  .00015683  00000+0  10064-2 0  9991
2 65769  51.8793   4.5931 0010197  90.2494 269.9649 15.08590641 14050
KUIPER-00150            
1 65770U 25217J   25360.33334491 -.00014930  00000+0 -19332-2 0  9996
2 65770  51.9020  14.9794 0000758 123.2595  33.6775 14.79944886  5494
KUIPER-00151            
1 65771U 25217K   25360.33334491 -.00027471  00000+0 -33047-2 0  9990
2 65771  51.9019   7.5751 0002292 122.6203 300.8360 14.83361938  4942
KUIPER-00152            
1 65772U 25217L   25360.33334491 -.01359456  00000+0 -67396-1 0  9996
2 65772  51.8850 359.0065 0003745  62.8770 236.7043 15.20575485  4644
KUIPER-00153            
1 65773U 25217M   25360.32044218  .00014656  00000+0  87038-3 0  9995
2 65773  51.8784   9.0144 0013487  67.4903 292.7499 15.11446008 13997
KUIPER-00155            
1 65774U 25217N   25360.28332749  .00062407  00000+0  16579-2 0  9998
2 65774  51.8668 359.2030 0009305  68.3785 291.8193 15.37633171 14129
KUIPER-00156            
1 65775U 25217P   25360.33334491 -.01888363  00000+0 -60764-1 0  9995
2 65775  51.8746 358.0965 0003291  61.4654 296.6520 15.35191088  4960
KUIPER-00158            
1 65776U 25217Q   25360.33334491 -.00025117  00000+0 -31832-2 0  9990
2 65776  51.8979   9.9919 0001770 110.5756 190.0109 14.81157098  5424
KUIPER-00163            
1 65777U 25217R   25360.20237514  .00005099  00000+0  72297-3 0  9991
2 65777  51.8993  13.0285 0001299  48.4871 311.6202 14.78386883 13927
